{
  "type": "FeatureCollection",
  "features": [
    {
      "type": "Feature",
      "properties": {
        "norad_id": 34588,
        "name": "COSMOS 2251 DEB",
        "group": "cosmos-2251-debris",
        "lat": 30.36006399372177,
        "lon": 86.94223715133957,
        "alt_km": 763.5483227942632,
        "timestamp": "2025-12-08T05:48:09.428328+00:00",
        "meta_object_name": "COSMOS 2251 DEB",
        "meta_object_id": "1993-036WA",
        "meta_epoch": "2025-12-07T22:45:56.816928",
        "meta_mean_motion": 14.41997387,
        "meta_eccentricity": 0.0019072,
        "meta_inclination": 74.0441,
        "meta_ra_of_asc_node": 277.1327,
        "meta_arg_of_pericenter": 330.3073,
        "meta_mean_anomaly": 96.4279,
        "meta_ephemeris_type": 0,
        "meta_classification_type": "U",
        "meta_norad_cat_id": 34588,
        "meta_element_set_no": 999,
        "meta_rev_at_epoch": 87881,
        "meta_bstar": 0.0007499085,
        "meta_mean_motion_dot": 2.439e-05,
        "meta_mean_motion_ddot": 0,
        "tle_line1": "1 34588U 93036WA  25341.94857427  .00002439  00000+0  74991-3 0  9990",
        "tle_line2": "2 34588  74.0441 277.1327 0019072 330.3073  96.4279 14.41997387878819"
      },
      "geometry": {
        "type": "Point",
        "coordinates": [
          86.94223715133957,
          30.36006399372177
        ]
      }
    },
    {
      "type": "Feature",
      "properties": {
        "norad_id": 34589,
        "name": "COSMOS 2251 DEB",
        "group": "cosmos-2251-debris",
        "lat": 2.37984043612535,
        "lon": -116.98936271246495,
        "alt_km": 1125.7605677118154,
        "timestamp": "2025-12-08T05:48:09.428338+00:00",
        "meta_object_name": "COSMOS 2251 DEB",
        "meta_object_id": "1993-036WB",
        "meta_epoch": "2025-12-05T12:58:27.050304",
        "meta_mean_motion": 13.86044835,
        "meta_eccentricity": 0.02516941,
        "meta_inclination": 73.9247,
        "meta_ra_of_asc_node": 68.2981,
        "meta_arg_of_pericenter": 13.0786,
        "meta_mean_anomaly": 10.6469,
        "meta_ephemeris_type": 0,
        "meta_classification_type": "U",
        "meta_norad_cat_id": 34589,
        "meta_element_set_no": 999,
        "meta_rev_at_epoch": 84612,
        "meta_bstar": 0.00038916081,
        "meta_mean_motion_dot": 5.51e-06,
        "meta_mean_motion_ddot": 0,
        "tle_line1": "1 34589U 93036WB  25339.54059086  .00000551  00000+0  38916-3 0  9999",
        "tle_line2": "2 34589  73.9247  68.2981 0251694  13.0786  10.6469 13.86044835846128"
      },
      "geometry": {
        "type": "Point",
        "coordinates": [
          -116.98936271246495,
          2.37984043612535
        ]
      }
    },
    {
      "type": "Feature",
      "properties": {
        "norad_id": 34590,
        "name": "COSMOS 2251 DEB",
        "group": "cosmos-2251-debris",
        "lat": 48.038352647915524,
        "lon": 132.50713712157446,
        "alt_km": 662.4053534989907,
        "timestamp": "2025-12-08T05:48:09.428348+00:00",
        "meta_object_name": "COSMOS 2251 DEB",
        "meta_object_id": "1993-036WC",
        "meta_epoch": "2025-12-07T10:05:38.061888",
        "meta_mean_motion": 14.54816593,
        "meta_eccentricity": 0.00679782,
        "meta_inclination": 74.0435,
        "meta_ra_of_asc_node": 332.6133,
        "meta_arg_of_pericenter": 103.7669,
        "meta_mean_anomaly": 46.0211,
        "meta_ephemeris_type": 0,
        "meta_classification_type": "U",
        "meta_norad_cat_id": 34590,
        "meta_element_set_no": 999,
        "meta_rev_at_epoch": 89043,
        "meta_bstar": 0.00022849538,
        "meta_mean_motion_dot": 9.81e-06,
        "meta_mean_motion_ddot": 0,
        "tle_line1": "1 34590U 93036WC  25341.42057942  .00000981  00000+0  22850-3 0  9997",
        "tle_line2": "2 34590  74.0435 332.6133 0067978 103.7669  46.0211 14.54816593890430"
      },
      "geometry": {
        "type": "Point",
        "coordinates": [
          132.50713712157446,
          48.038352647915524
        ]
      }
    },
    {
      "type": "Feature",
      "properties": {
        "norad_id": 34609,
        "name": "COSMOS 2251 DEB",
        "group": "cosmos-2251-debris",
        "lat": 67.43448299465335,
        "lon": 159.58131528127404,
        "alt_km": 827.3545277313751,
        "timestamp": "2025-12-08T05:48:09.428358+00:00",
        "meta_object_name": "COSMOS 2251 DEB",
        "meta_object_id": "1993-036WE",
        "meta_epoch": "2025-12-07T20:02:44.789568",
        "meta_mean_motion": 14.21767355,
        "meta_eccentricity": 0.01448458,
        "meta_inclination": 73.733,
        "meta_ra_of_asc_node": 115.6854,
        "meta_arg_of_pericenter": 335.9434,
        "meta_mean_anomaly": 176.6082,
        "meta_ephemeris_type": 0,
        "meta_classification_type": "U",
        "meta_norad_cat_id": 34609,
        "meta_element_set_no": 999,
        "meta_rev_at_epoch": 86562,
        "meta_bstar": 0.0012020414,
        "meta_mean_motion_dot": 2.915e-05,
        "meta_mean_motion_ddot": 0,
        "tle_line1": "1 34609U 93036WE  25341.83524062  .00002915  00000+0  12020-2 0  9991",
        "tle_line2": "2 34609  73.7330 115.6854 0144845 335.9434 176.6082 14.21767355865622"
      },
      "geometry": {
        "type": "Point",
        "coordinates": [
          159.58131528127404,
          67.43448299465335
        ]
      }
    },
    {
      "type": "Feature",
      "properties": {
        "norad_id": 34610,
        "name": "COSMOS 2251 DEB",
        "group": "cosmos-2251-debris",
        "lat": 57.26345666135277,
        "lon": 63.73783221956848,
        "alt_km": 832.4400954351777,
        "timestamp": "2025-12-08T05:48:09.428371+00:00",
        "meta_object_name": "COSMOS 2251 DEB",
        "meta_object_id": "1993-036WF",
        "meta_epoch": "2025-12-07T05:21:56.980224",
        "meta_mean_motion": 14.06993956,
        "meta_eccentricity": 0.01801596,
        "meta_inclination": 74.0199,
        "meta_ra_of_asc_node": 271.9919,
        "meta_arg_of_pericenter": 43.7956,
        "meta_mean_anomaly": 317.7307,
        "meta_ephemeris_type": 0,
        "meta_classification_type": "U",
        "meta_norad_cat_id": 34610,
        "meta_element_set_no": 999,
        "meta_rev_at_epoch": 85482,
        "meta_bstar": 0.0033577989,
        "meta_mean_motion_dot": 6.478e-05,
        "meta_mean_motion_ddot": 0,
        "tle_line1": "1 34610U 93036WF  25341.22357616  .00006478  00000+0  33578-2 0  9994",
        "tle_line2": "2 34610  74.0199 271.9919 0180159  43.7956 317.7307 14.06993956854829"
      },
      "geometry": {
        "type": "Point",
        "coordinates": [
          63.73783221956848,
          57.26345666135277
        ]
      }
    },
    {
      "type": "Feature",
      "properties": {
        "norad_id": 34611,
        "name": "COSMOS 2251 DEB",
        "group": "cosmos-2251-debris",
        "lat": -58.46571568868569,
        "lon": -42.557244635691745,
        "alt_km": 669.6459475040119,
        "timestamp": "2025-12-08T05:48:09.428381+00:00",
        "meta_object_name": "COSMOS 2251 DEB",
        "meta_object_id": "1993-036WG",
        "meta_epoch": "2025-12-07T19:27:56.990592",
        "meta_mean_motion": 14.69359256,
        "meta_eccentricity": 0.00232684,
        "meta_inclination": 74.0535,
        "meta_ra_of_asc_node": 110.5032,
        "meta_arg_of_pericenter": 153.8289,
        "meta_mean_anomaly": 330.9461,
        "meta_ephemeris_type": 0,
        "meta_classification_type": "U",
        "meta_norad_cat_id": 34611,
        "meta_element_set_no": 999,
        "meta_rev_at_epoch": 88318,
        "meta_bstar": 0.0029402071,
        "meta_mean_motion_dot": 0.00017465,
        "meta_mean_motion_ddot": 0,
        "tle_line1": "1 34611U 93036WG  25341.81107628  .00017465  00000+0  29402-2 0  9995",
        "tle_line2": "2 34611  74.0535 110.5032 0023268 153.8289 330.9461 14.69359256883184"
      },
      "geometry": {
        "type": "Point",
        "coordinates": [
          -42.557244635691745,
          -58.46571568868569
        ]
      }
    },
    {
      "type": "Feature",
      "properties": {
        "norad_id": 34613,
        "name": "COSMOS 2251 DEB",
        "group": "cosmos-2251-debris",
        "lat": -52.09569395367305,
        "lon": -94.95782625681963,
        "alt_km": 889.1721137371251,
        "timestamp": "2025-12-08T05:48:09.428391+00:00",
        "meta_object_name": "COSMOS 2251 DEB",
        "meta_object_id": "1993-036WJ",
        "meta_epoch": "2025-12-07T20:06:06.186240",
        "meta_mean_motion": 14.26390065,
        "meta_eccentricity": 0.01101174,
        "meta_inclination": 73.964,
        "meta_ra_of_asc_node": 287.454,
        "meta_arg_of_pericenter": 120.5496,
        "meta_mean_anomaly": 269.6776,
        "meta_ephemeris_type": 0,
        "meta_classification_type": "U",
        "meta_norad_cat_id": 34613,
        "meta_element_set_no": 999,
        "meta_rev_at_epoch": 86393,
        "meta_bstar": 0.0020434014,
        "meta_mean_motion_dot": 5.216e-05,
        "meta_mean_motion_ddot": 0,
        "tle_line1": "1 34613U 93036WJ  25341.83757160  .00005216  00000+0  20434-2 0  9998",
        "tle_line2": "2 34613  73.9640 287.4540 0110117 120.5496 269.6776 14.26390065863934"
      },
      "geometry": {
        "type": "Point",
        "coordinates": [
          -94.95782625681963,
          -52.09569395367305
        ]
      }
    }
  ]
}